{"type": "FeatureCollection", "features": [ {"type": "Feature", "properties": {"norad_id": 54234, "name": "NOAA 21 (JPSS-2)", "group": "weather", "lat": -49.82224657736764, "lon": 96.0021935835664, "alt_km": 835.2244074480177, "timestamp": "2025-12-16T05:49:08.866405+00:00", "meta": {"OBJECT_NAME": "NOAA 21 (JPSS-2)", "OBJECT_ID": "2022-150A", "EPOCH": "2025-12-15T21:58:10.978176", "MEAN_MOTION": 14.1952517, "ECCENTRICITY": 0.00020866, "INCLINATION": 98.7464, "RA_OF_ASC_NODE": 286.184, "ARG_OF_PERICENTER": 31.8766, "MEAN_ANOMALY": 328.2536, "EPHEMERIS_TYPE": 0, "CLASSIFICATION_TYPE": "U", "NORAD_CAT_ID": 54234, "ELEMENT_SET_NO": 999, "REV_AT_EPOCH": 16054, "BSTAR": 5.1082584e-05, "MEAN_MOTION_DOT": 6.4e-07, "MEAN_MOTION_DDOT": 0}, "tle": {"line1": "1 54234U 22150A   25349.91540484  .00000064  00000+0  51083-4 0  9996", "line2": "2 54234  98.7464 286.1840 0002086  31.8766 328.2536 14.19525170160544"}}, "geometry": {"type": "Point", "coordinates": [96.0021935835664, -49.82224657736764]}}, {"type": "Feature", "properties": {"norad_id": 54743, "name": "METEOSAT-12 (MTG-I1)", "group": "weather", "lat": 0.3605640595309182, "lon": 172.11176521732705, "alt_km": 35786.69053216512, "timestamp": "2025-12-16T05:49:08.866416+00:00", "meta": {"OBJECT_NAME": "METEOSAT-12 (MTG-I1)", "OBJECT_ID": "2022-170C", "EPOCH": "2025-12-15T21:56:47.044896", "MEAN_MOTION": 1.00269839, "ECCENTRICITY": 0.00015644, "INCLINATION": 0.6902, "RA_OF_ASC_NODE": 24.1578, "ARG_OF_PERICENTER": 239.0521, "MEAN_ANOMALY": 150.5168, "EPHEMERIS_TYPE": 0, "CLASSIFICATION_TYPE": "U", "NORAD_CAT_ID": 54743, "ELEMENT_SET_NO": 999, "REV_AT_EPOCH": 1114, "BSTAR": 0, "MEAN_MOTION_DOT": 1.5e-07, "MEAN_MOTION_DDOT": 0}, "tle": {"line1": "1 54743U 22170C   25349.91443339  .00000015  00000+0  00000+0 0  9998", "line2": "2 54743   0.6902  24.1578 0001564 239.0521 150.5168  1.00269839 11148"}}, "geometry": {"type": "Point", "coordinates": [172.11176521732705, 0.3605640595309182]}}, {"type": "Feature", "properties": {"norad_id": 55973, "name": "TIANMU-1 03", "group": "weather", "lat": -64.2802707355483, "lon": -42.90392944808273, "alt_km": 453.1390953641385, "timestamp": "2025-12-16T05:49:08.866428+00:00", "meta": {"OBJECT_NAME": "TIANMU-1 03", "OBJECT_ID": "2023-039A", "EPOCH": "2025-12-16T00:04:57.939168", "MEAN_MOTION": 15.41022728, "ECCENTRICITY": 0.00042733, "INCLINATION": 97.5102, "RA_OF_ASC_NODE": 152.7459, "ARG_OF_PERICENTER": 51.751, "MEAN_ANOMALY": 308.412, "EPHEMERIS_TYPE": 0, "CLASSIFICATION_TYPE": "U", "NORAD_CAT_ID": 55973, "ELEMENT_SET_NO": 999, "REV_AT_EPOCH": 15256, "BSTAR": 0.00029910211, "MEAN_MOTION_DOT": 0.00012263, "MEAN_MOTION_DDOT": 0}, "tle": {"line1": "1 55973U 23039A   25350.00344837  .00012263  00000+0  29910-3 0  9997", "line2": "2 55973  97.5102 152.7459 0004273  51.7510 308.4120 15.41022728152562"}}, "geometry": {"type": "Point", "coordinates": [-42.90392944808273, -64.2802707355483]}}, {"type": "Feature", "properties": {"norad_id": 55974, "name": "TIANMU-1 04", "group": "weather", "lat": 3.3173936643308872, "lon": 151.74345183272456, "alt_km": 442.24933932950717, "timestamp": "2025-12-16T05:49:08.866437+00:00", "meta": {"OBJECT_NAME": "TIANMU-1 04", "OBJECT_ID": "2023-039B", "EPOCH": "2025-12-15T23:34:20.523936", "MEAN_MOTION": 15.41360805, "ECCENTRICITY": 0.00049308, "INCLINATION": 97.5033, "RA_OF_ASC_NODE": 151.9138, "ARG_OF_PERICENTER": 46.4994, "MEAN_ANOMALY": 313.6661, "EPHEMERIS_TYPE": 0, "CLASSIFICATION_TYPE": "U", "NORAD_CAT_ID": 55974, "ELEMENT_SET_NO": 999, "REV_AT_EPOCH": 15256, "BSTAR": 0.00028722532, "MEAN_MOTION_DOT": 0.00011906, "MEAN_MOTION_DDOT": 0}, "tle": {"line1": "1 55974U 23039B   25349.98218199  .00011906  00000+0  28723-3 0  9998", "line2": "2 55974  97.5033 151.9138 0004930  46.4994 313.6661 15.41360805152567"}}, "geometry": {"type": "Point", "coordinates": [151.74345183272456, 3.3173936643308872]}}, {"type": "Feature", "properties": {"norad_id": 55975, "name": "TIANMU-1 05", "group": "weather", "lat": 30.19609292286279, "lon": 148.27198927890674, "alt_km": 439.4294511654807, "timestamp": "2025-12-16T05:49:08.866489+00:00", "meta": {"OBJECT_NAME": "TIANMU-1 05", "OBJECT_ID": "2023-039C", "EPOCH": "2025-12-15T23:27:12.558816", "MEAN_MOTION": 15.40979623, "ECCENTRICITY": 0.00042706, "INCLINATION": 97.508, "RA_OF_ASC_NODE": 152.4012, "ARG_OF_PERICENTER": 69.2092, "MEAN_ANOMALY": 290.9611, "EPHEMERIS_TYPE": 0, "CLASSIFICATION_TYPE": "U", "NORAD_CAT_ID": 55975, "ELEMENT_SET_NO": 999, "REV_AT_EPOCH": 15254, "BSTAR": 0.00028344353, "MEAN_MOTION_DOT": 0.00011599, "MEAN_MOTION_DDOT": 0}, "tle": {"line1": "1 55975U 23039C   25349.97722869  .00011599  00000+0  28344-3 0  9999", "line2": "2 55975  97.5080 152.4012 0004270  69.2092 290.9611 15.40979623152549"}}, "geometry": {"type": "Point", "coordinates": [148.27198927890674, 30.19609292286279]}}, {"type": "Feature", "properties": {"norad_id": 55976, "name": "TIANMU-1 06", "group": "weather", "lat": -7.998425692410073, "lon": 154.2037182701293, "alt_km": 445.00111762026245, "timestamp": "2025-12-16T05:49:08.866502+00:00", "meta": {"OBJECT_NAME": "TIANMU-1 06", "OBJECT_ID": "2023-039D", "EPOCH": "2025-12-15T23:37:19.009920", "MEAN_MOTION": 15.41412846, "ECCENTRICITY": 0.00045769, "INCLINATION": 97.5091, "RA_OF_ASC_NODE": 152.8762, "ARG_OF_PERICENTER": 64.0612, "MEAN_ANOMALY": 296.1105, "EPHEMERIS_TYPE": 0, "CLASSIFICATION_TYPE": "U", "NORAD_CAT_ID": 55976, "ELEMENT_SET_NO": 999, "REV_AT_EPOCH": 15256, "BSTAR": 0.00028757369, "MEAN_MOTION_DOT": 0.00011941, "MEAN_MOTION_DDOT": 0}, "tle": {"line1": "1 55976U 23039D   25349.98424780  .00011941  00000+0  28757-3 0  9991", "line2": "2 55976  97.5091 152.8762 0004576  64.0612 296.1105 15.41412846152566"}}, "geometry": {"type": "Point", "coordinates": [154.2037182701293, -7.998425692410073]}}, {"type": "Feature", "properties": {"norad_id": 56232, "name": "FENGYUN 3G", "group": "weather", "lat": -47.75000251864943, "lon": 96.9950437273877, "alt_km": 409.87179992977235, "timestamp": "2025-12-16T05:49:08.866514+00:00", "meta": {"OBJECT_NAME": "FENGYUN 3G", "OBJECT_ID": "2023-055A", "EPOCH": "2025-12-16T00:05:46.387968", "MEAN_MOTION": 15.53848372, "ECCENTRICITY": 0.00093355, "INCLINATION": 49.993, "RA_OF_ASC_NODE": 210.6081, "ARG_OF_PERICENTER": 163.3111, "MEAN_ANOMALY": 196.8165, "EPHEMERIS_TYPE": 0, "CLASSIFICATION_TYPE": "U", "NORAD_CAT_ID": 56232, "ELEMENT_SET_NO": 999, "REV_AT_EPOCH": 15153, "BSTAR": 0.00036473677, "MEAN_MOTION_DOT": 0.00023568, "MEAN_MOTION_DDOT": 0}, "tle": {"line1": "1 56232U 23055A   25350.00400912  .00023568  00000+0  36474-3 0  9994", "line2": "2 56232  49.9930 210.6081 0009335 163.3111 196.8165 15.53848372151535"}}, "geometry": {"type": "Point", "coordinates": [96.9950437273877, -47.75000251864943]}}, {"type": "Feature", "properties": {"norad_id": 57166, "name": "METEOR-M2 3", "group": "weather", "lat": -13.728476887540143, "lon": -138.4075334971543, "alt_km": 818.8766997897292, "timestamp": "2025-12-16T05:49:08.866525+00:00", "meta": {"OBJECT_NAME": "METEOR-M2 3", "OBJECT_ID": "2023-091A", "EPOCH": "2025-12-15T23:51:10.812096", "MEAN_MOTION": 14.24026436, "ECCENTRICITY": 0.00037218, "INCLINATION": 98.6376, "RA_OF_ASC_NODE": 43.4764, "ARG_OF_PERICENTER": 359.3769, "MEAN_ANOMALY": 0.7404, "EPHEMERIS_TYPE": 0, "CLASSIFICATION_TYPE": "U", "NORAD_CAT_ID": 57166, "ELEMENT_SET_NO": 999, "REV_AT_EPOCH": 12844, "BSTAR": 2.4069358e-05, "MEAN_MOTION_DOT": 1.2e-07, "MEAN_MOTION_DDOT": 0}, "tle": {"line1": "1 57166U 23091A   25349.99387514  .00000012  00000+0  24069-4 0  9996", "line2": "2 57166  98.6376  43.4764 0003721 359.3769   0.7404 14.24026436128445"}}, "geometry": {"type": "Point", "coordinates": [-138.4075334971543, -13.728476887540143]}}, {"type": "Feature", "properties": {"norad_id": 57399, "name": "TIANMU-1 07", "group": "weather", "lat": -69.67412063431696, "lon": -160.19670753720928, "alt_km": 492.49172966268816, "timestamp": "2025-12-16T05:49:08.866535+00:00", "meta": {"OBJECT_NAME": "TIANMU-1 07", "OBJECT_ID": "2023-101A", "EPOCH": "2025-12-15T22:26:17.621952", "MEAN_MOTION": 15.28119791, "ECCENTRICITY": 0.00054874, "INCLINATION": 97.288, "RA_OF_ASC_NODE": 39.7145, "ARG_OF_PERICENTER": 73.5145, "MEAN_ANOMALY": 286.6697, "EPHEMERIS_TYPE": 0, "CLASSIFICATION_TYPE": "U", "NORAD_CAT_ID": 57399, "ELEMENT_SET_NO": 999, "REV_AT_EPOCH": 13364, "BSTAR": 0.00020230771, "MEAN_MOTION_DOT": 5.475e-05, "MEAN_MOTION_DDOT": 0}, "tle": {"line1": "1 57399U 23101A   25349.93492618  .00005475  00000+0  20231-3 0  9996", "line2": "2 57399  97.2880  39.7145 0005487  73.5145 286.6697 15.28119791133642"}}, "geometry": {"type": "Point", "coordinates": [-160.19670753720928, -69.67412063431696]}}, {"type": "Feature", "properties": {"norad_id": 57400, "name": "TIANMU-1 08", "group": "weather", "lat": 71.01044413788937, "lon": 17.983310848893353, "alt_km": 469.5245145522331, "timestamp": "2025-12-16T05:49:08.866546+00:00", "meta": {"OBJECT_NAME": "TIANMU-1 08", "OBJECT_ID": "2023-101B", "EPOCH": "2025-12-15T23:13:02.579808", "MEAN_MOTION": 15.2810356, "ECCENTRICITY": 0.0007454, "INCLINATION": 97.2869, "RA_OF_ASC_NODE": 39.5437, "ARG_OF_PERICENTER": 74.9703, "MEAN_ANOMALY": 285.2362, "EPHEMERIS_TYPE": 0, "CLASSIFICATION_TYPE": "U", "NORAD_CAT_ID": 57400, "ELEMENT_SET_NO": 999, "REV_AT_EPOCH": 13364, "BSTAR": 0.00020560432, "MEAN_MOTION_DOT": 5.565e-05, "MEAN_MOTION_DDOT": 0}, "tle": {"line1": "1 57400U 23101B   25349.96739097  .00005565  00000+0  20560-3 0  9992", "line2": "2 57400  97.2869  39.5437 0007454  74.9703 285.2362 15.28103560133646"}}, "geometry": {"type": "Point", "coordinates": [17.983310848893353, 71.01044413788937]}}]}